{
  "type": "FeatureCollection",
  "features": [
    {
      "type": "Feature",
      "properties": {
        "norad_id": 33887,
        "name": "IRIDIUM 33 DEB",
        "group": "iridium-33-debris",
        "lat": 58.21286387063751,
        "lon": 3.4929566932913945,
        "alt_km": 764.0302661074375,
        "timestamp": "2025-12-26T09:30:54.024139+00:00",
        "meta_object_name": "IRIDIUM 33 DEB",
        "meta_object_id": "1997-051BG",
        "meta_epoch": "2025-12-26T01:09:55.785312",
        "meta_mean_motion": 14.37232581,
        "meta_eccentricity": 0.0005898,
        "meta_inclination": 86.3044,
        "meta_ra_of_asc_node": 357.6564,
        "meta_arg_of_pericenter": 176.4648,
        "meta_mean_anomaly": 243.1701,
        "meta_ephemeris_type": 0,
        "meta_classification_type": "U",
        "meta_norad_cat_id": 33887,
        "meta_element_set_no": 999,
        "meta_rev_at_epoch": 88356,
        "meta_bstar": 0.00014545,
        "meta_mean_motion_dot": 4.53e-06,
        "meta_mean_motion_ddot": 0,
        "tle_line1": "1 33887U 97051BG  25360.04856233  .00000453  00000+0  14545-3 0  9991",
        "tle_line2": "2 33887  86.3044 357.6564 0005898 176.4648 243.1701 14.37232581883562"
      },
      "geometry": {
        "type": "Point",
        "coordinates": [
          3.4929566932913945,
          58.21286387063751
        ]
      }
    },
    {
      "type": "Feature",
      "properties": {
        "norad_id": 33953,
        "name": "IRIDIUM 33 DEB",
        "group": "iridium-33-debris",
        "lat": 84.29926507428117,
        "lon": 87.16628197906812,
        "alt_km": 689.2175309451186,
        "timestamp": "2025-12-26T09:30:54.024149+00:00",
        "meta_object_name": "IRIDIUM 33 DEB",
        "meta_object_id": "1997-051BN",
        "meta_epoch": "2025-12-26T02:39:33.222816",
        "meta_mean_motion": 14.55445829,
        "meta_eccentricity": 0.0017493,
        "meta_inclination": 86.3833,
        "meta_ra_of_asc_node": 47.9748,
        "meta_arg_of_pericenter": 61.7308,
        "meta_mean_anomaly": 328.017,
        "meta_ephemeris_type": 0,
        "meta_classification_type": "U",
        "meta_norad_cat_id": 33953,
        "meta_element_set_no": 999,
        "meta_rev_at_epoch": 88498,
        "meta_bstar": 0.0010461,
        "meta_mean_motion_dot": 4.576e-05,
        "meta_mean_motion_ddot": 0,
        "tle_line1": "1 33953U 97051BN  25360.11080119  .00004576  00000+0  10461-2 0  9997",
        "tle_line2": "2 33953  86.3833  47.9748 0017493  61.7308 328.0170 14.55445829884989"
      },
      "geometry": {
        "type": "Point",
        "coordinates": [
          87.16628197906812,
          84.29926507428117
        ]
      }
    },
    {
      "type": "Feature",
      "properties": {
        "norad_id": 33960,
        "name": "IRIDIUM 33 DEB",
        "group": "iridium-33-debris",
        "lat": -70.36776932305264,
        "lon": -87.51158063278615,
        "alt_km": 619.7385162106211,
        "timestamp": "2025-12-26T09:30:54.024160+00:00",
        "meta_object_name": "IRIDIUM 33 DEB",
        "meta_object_id": "1997-051BV",
        "meta_epoch": "2025-12-25T19:31:33.400992",
        "meta_mean_motion": 14.85848128,
        "meta_eccentricity": 0.00070784,
        "meta_inclination": 86.2535,
        "meta_ra_of_asc_node": 283.3484,
        "meta_arg_of_pericenter": 39.5343,
        "meta_mean_anomaly": 14.0569,
        "meta_ephemeris_type": 0,
        "meta_classification_type": "U",
        "meta_norad_cat_id": 33960,
        "meta_element_set_no": 999,
        "meta_rev_at_epoch": 89061,
        "meta_bstar": 0.0032209235,
        "meta_mean_motion_dot": 0.00028154,
        "meta_mean_motion_ddot": 0,
        "tle_line1": "1 33960U 97051BV  25359.81358103  .00028154  00000+0  32209-2 0  9993",
        "tle_line2": "2 33960  86.2535 283.3484 0007078  39.5343  14.0569 14.85848128890611"
      },
      "geometry": {
        "type": "Point",
        "coordinates": [
          -87.51158063278615,
          -70.36776932305264
        ]
      }
    },
    {
      "type": "Feature",
      "properties": {
        "norad_id": 33966,
        "name": "IRIDIUM 33 DEB",
        "group": "iridium-33-debris",
        "lat": -71.20973551528505,
        "lon": 29.4748290484743,
        "alt_km": 739.1594711190155,
        "timestamp": "2025-12-26T09:30:54.024170+00:00",
        "meta_object_name": "IRIDIUM 33 DEB",
        "meta_object_id": "1997-051CB",
        "meta_epoch": "2025-12-26T03:28:19.099200",
        "meta_mean_motion": 14.49643955,
        "meta_eccentricity": 0.0008831,
        "meta_inclination": 86.3909,
        "meta_ra_of_asc_node": 40.2734,
        "meta_arg_of_pericenter": 147.0039,
        "meta_mean_anomaly": 268.233,
        "meta_ephemeris_type": 0,
        "meta_classification_type": "U",
        "meta_norad_cat_id": 33966,
        "meta_element_set_no": 999,
        "meta_rev_at_epoch": 88636,
        "meta_bstar": 0.00047027,
        "meta_mean_motion_dot": 1.827e-05,
        "meta_mean_motion_ddot": 0,
        "tle_line1": "1 33966U 97051CB  25360.14466550  .00001827  00000+0  47027-3 0  9996",
        "tle_line2": "2 33966  86.3909  40.2734 0008831 147.0039 268.2330 14.49643955886363"
      },
      "geometry": {
        "type": "Point",
        "coordinates": [
          29.4748290484743,
          -71.20973551528505
        ]
      }
    },
    {
      "type": "Feature",
      "properties": {
        "norad_id": 34071,
        "name": "IRIDIUM 33 DEB",
        "group": "iridium-33-debris",
        "lat": -11.56115061278074,
        "lon": 11.142127981612306,
        "alt_km": 730.7352619143812,
        "timestamp": "2025-12-26T09:30:54.024181+00:00",
        "meta_object_name": "IRIDIUM 33 DEB",
        "meta_object_id": "1997-051CE",
        "meta_epoch": "2025-12-26T02:56:28.283712",
        "meta_mean_motion": 14.49522811,
        "meta_eccentricity": 0.0009811,
        "meta_inclination": 86.3453,
        "meta_ra_of_asc_node": 12.0103,
        "meta_arg_of_pericenter": 71.963,
        "meta_mean_anomaly": 288.2643,
        "meta_ephemeris_type": 0,
        "meta_classification_type": "U",
        "meta_norad_cat_id": 34071,
        "meta_element_set_no": 999,
        "meta_rev_at_epoch": 88528,
        "meta_bstar": 0.00059587,
        "meta_mean_motion_dot": 2.304e-05,
        "meta_mean_motion_ddot": 0,
        "tle_line1": "1 34071U 97051CE  25360.12254958  .00002304  00000+0  59587-3 0  9994",
        "tle_line2": "2 34071  86.3453  12.0103 0009811  71.9630 288.2643 14.49522811885289"
      },
      "geometry": {
        "type": "Point",
        "coordinates": [
          11.142127981612306,
          -11.56115061278074
        ]
      }
    },
    {
      "type": "Feature",
      "properties": {
        "norad_id": 34077,
        "name": "IRIDIUM 33 DEB",
        "group": "iridium-33-debris",
        "lat": -47.89244621221102,
        "lon": -130.49856978365344,
        "alt_km": 687.568877995529,
        "timestamp": "2025-12-26T09:30:54.024192+00:00",
        "meta_object_name": "IRIDIUM 33 DEB",
        "meta_object_id": "1997-051CL",
        "meta_epoch": "2025-12-26T03:48:27.994176",
        "meta_mean_motion": 14.65007074,
        "meta_eccentricity": 0.0008627,
        "meta_inclination": 86.3848,
        "meta_ra_of_asc_node": 45.595,
        "meta_arg_of_pericenter": 355.0003,
        "meta_mean_anomaly": 59.6549,
        "meta_ephemeris_type": 0,
        "meta_classification_type": "U",
        "meta_norad_cat_id": 34077,
        "meta_element_set_no": 999,
        "meta_rev_at_epoch": 88529,
        "meta_bstar": 0.0014921,
        "meta_mean_motion_dot": 8.022e-05,
        "meta_mean_motion_ddot": 0,
        "tle_line1": "1 34077U 97051CL  25360.15865734  .00008022  00000+0  14921-2 0  9998",
        "tle_line2": "2 34077  86.3848  45.5950 0008627 355.0003  59.6549 14.65007074885291"
      },
      "geometry": {
        "type": "Point",
        "coordinates": [
          -130.49856978365344,
          -47.89244621221102
        ]
      }
    },
    {
      "type": "Feature",
      "properties": {
        "norad_id": 34079,
        "name": "IRIDIUM 33 DEB",
        "group": "iridium-33-debris",
        "lat": 61.80625666148889,
        "lon": 9.235663509773278,
        "alt_km": 611.9136024709178,
        "timestamp": "2025-12-26T09:30:54.024202+00:00",
        "meta_object_name": "IRIDIUM 33 DEB",
        "meta_object_id": "1997-051CN",
        "meta_epoch": "2025-12-26T01:24:32.664096",
        "meta_mean_motion": 14.83885214,
        "meta_eccentricity": 0.0003911,
        "meta_inclination": 86.3778,
        "meta_ra_of_asc_node": 2.6027,
        "meta_arg_of_pericenter": 316.8508,
        "meta_mean_anomaly": 102.125,
        "meta_ephemeris_type": 0,
        "meta_classification_type": "U",
        "meta_norad_cat_id": 34079,
        "meta_element_set_no": 999,
        "meta_rev_at_epoch": 89175,
        "meta_bstar": 0.0018326,
        "meta_mean_motion_dot": 0.00015253,
        "meta_mean_motion_ddot": 0,
        "tle_line1": "1 34079U 97051CN  25360.05871139  .00015253  00000+0  18326-2 0  9992",
        "tle_line2": "2 34079  86.3778   2.6027 0003911 316.8508 102.1250 14.83885214891751"
      },
      "geometry": {
        "type": "Point",
        "coordinates": [
          9.235663509773278,
          61.80625666148889
        ]
      }
    }
  ]
}